{
  "type": "FeatureCollection",
  "features": [
    {
      "type": "Feature",
      "properties": {
        "norad_id": 44873,
        "name": "CSG-1",
        "group": "resource",
        "lat": 71.12842569010768,
        "lon": 10.908160050971228,
        "alt_km": 614.7153512030782,
        "timestamp": "2025-12-11T15:53:39.199957+00:00",
        "meta_object_name": "CSG-1",
        "meta_object_id": "2019-092A",
        "meta_epoch": "2025-12-11T05:41:27.849696",
        "meta_mean_motion": 14.82160831,
        "meta_eccentricity": 0.00014421,
        "meta_inclination": 97.881,
        "meta_ra_of_asc_node": 166.584,
        "meta_arg_of_pericenter": 85.2123,
        "meta_mean_anomaly": 274.9255,
        "meta_ephemeris_type": 0,
        "meta_classification_type": "U",
        "meta_norad_cat_id": 44873,
        "meta_element_set_no": 999,
        "meta_rev_at_epoch": 32363,
        "meta_bstar": 0.00013023655,
        "meta_mean_motion_dot": 9.85e-06,
        "meta_mean_motion_ddot": 0,
        "tle_line1": "1 44873U 19092A   25345.23712789  .00000985  00000+0  13024-3 0  9999",
        "tle_line2": "2 44873  97.8810 166.5840 0001442  85.2123 274.9255 14.82160831323638"
      },
      "geometry": {
        "type": "Point",
        "coordinates": [
          10.908160050971228,
          71.12842569010768
        ]
      }
    },
    {
      "type": "Feature",
      "properties": {
        "norad_id": 46277,
        "name": "NEMO-HD",
        "group": "resource",
        "lat": 40.319724241204064,
        "lon": 38.59628307864943,
        "alt_km": 440.794522504154,
        "timestamp": "2025-12-11T15:53:39.199967+00:00",
        "meta_object_name": "NEMO-HD",
        "meta_object_id": "2020-061F",
        "meta_epoch": "2025-12-11T06:21:47.645856",
        "meta_mean_motion": 15.40295602,
        "meta_eccentricity": 0.00019782,
        "meta_inclination": 97.2211,
        "meta_ra_of_asc_node": 44.3814,
        "meta_arg_of_pericenter": 58.1284,
        "meta_mean_anomaly": 302.0155,
        "meta_ephemeris_type": 0,
        "meta_classification_type": "U",
        "meta_norad_cat_id": 46277,
        "meta_element_set_no": 999,
        "meta_rev_at_epoch": 29301,
        "meta_bstar": 0.00078877681,
        "meta_mean_motion_dot": 0.00031787,
        "meta_mean_motion_ddot": 0,
        "tle_line1": "1 46277U 20061F   25345.26513479  .00031787  00000+0  78878-3 0  9997",
        "tle_line2": "2 46277  97.2211  44.3814 0001978  58.1284 302.0155 15.40295602293012"
      },
      "geometry": {
        "type": "Point",
        "coordinates": [
          38.59628307864943,
          40.319724241204064
        ]
      }
    },
    {
      "type": "Feature",
      "properties": {
        "norad_id": 46984,
        "name": "SENTINEL-6A",
        "group": "resource",
        "lat": 8.224439286915066,
        "lon": -19.13829230056619,
        "alt_km": 1339.3240484469998,
        "timestamp": "2025-12-11T15:53:39.199977+00:00",
        "meta_object_name": "SENTINEL-6A",
        "meta_object_id": "2020-086A",
        "meta_epoch": "2025-12-10T18:23:32.214912",
        "meta_mean_motion": 12.80930554,
        "meta_eccentricity": 0.0007731,
        "meta_inclination": 66.039,
        "meta_ra_of_asc_node": 166.4071,
        "meta_arg_of_pericenter": 269.1652,
        "meta_mean_anomaly": 90.8477,
        "meta_ephemeris_type": 0,
        "meta_classification_type": "U",
        "meta_norad_cat_id": 46984,
        "meta_element_set_no": 999,
        "meta_rev_at_epoch": 23619,
        "meta_bstar": 9.1963369e-05,
        "meta_mean_motion_dot": -4e-07,
        "meta_mean_motion_ddot": 0,
        "tle_line1": "1 46984U 20086A   25344.76634508 -.00000040  00000+0  91963-4 0  9990",
        "tle_line2": "2 46984  66.0390 166.4071 0007731 269.1652  90.8477 12.80930554236194"
      },
      "geometry": {
        "type": "Point",
        "coordinates": [
          -19.13829230056619,
          8.224439286915066
        ]
      }
    },
    {
      "type": "Feature",
      "properties": {
        "norad_id": 48079,
        "name": "GAOFEN-12 02",
        "group": "resource",
        "lat": 13.004220824574373,
        "lon": -22.183880227781064,
        "alt_km": 628.3435732635844,
        "timestamp": "2025-12-11T15:53:39.199987+00:00",
        "meta_object_name": "GAOFEN-12 02",
        "meta_object_id": "2021-026A",
        "meta_epoch": "2025-12-11T06:06:13.931424",
        "meta_mean_motion": 14.80675607,
        "meta_eccentricity": 0.00035107,
        "meta_inclination": 97.9852,
        "meta_ra_of_asc_node": 339.2679,
        "meta_arg_of_pericenter": 104.0601,
        "meta_mean_anomaly": 256.1001,
        "meta_ephemeris_type": 0,
        "meta_classification_type": "U",
        "meta_norad_cat_id": 48079,
        "meta_element_set_no": 999,
        "meta_rev_at_epoch": 25395,
        "meta_bstar": 0.00018101778,
        "meta_mean_motion_dot": 1.339e-05,
        "meta_mean_motion_ddot": 0,
        "tle_line1": "1 48079U 21026A   25345.25432791  .00001339  00000+0  18102-3 0  9991",
        "tle_line2": "2 48079  97.9852 339.2679 0003510 104.0601 256.1001 14.80675607253953"
      },
      "geometry": {
        "type": "Point",
        "coordinates": [
          -22.183880227781064,
          13.004220824574373
        ]
      }
    },
    {
      "type": "Feature",
      "properties": {
        "norad_id": 48268,
        "name": "PLEIADES NEO 3",
        "group": "resource",
        "lat": 74.29698681346679,
        "lon": 28.54548107982736,
        "alt_km": 615.9646348749702,
        "timestamp": "2025-12-11T15:53:39.199997+00:00",
        "meta_object_name": "PLEIADES NEO 3",
        "meta_object_id": "2021-034A",
        "meta_epoch": "2025-12-11T07:26:49.061184",
        "meta_mean_motion": 14.81680528,
        "meta_eccentricity": 0.00014283,
        "meta_inclination": 97.8943,
        "meta_ra_of_asc_node": 57.7716,
        "meta_arg_of_pericenter": 92.905,
        "meta_mean_anomaly": 267.2327,
        "meta_ephemeris_type": 0,
        "meta_classification_type": "U",
        "meta_norad_cat_id": 48268,
        "meta_element_set_no": 999,
        "meta_rev_at_epoch": 24983,
        "meta_bstar": 0.00040412679,
        "meta_mean_motion_dot": 3.13e-05,
        "meta_mean_motion_ddot": 0,
        "tle_line1": "1 48268U 21034A   25345.31029006  .00003130  00000+0  40413-3 0  9999",
        "tle_line2": "2 48268  97.8943  57.7716 0001428  92.9050 267.2327 14.81680528249831"
      },
      "geometry": {
        "type": "Point",
        "coordinates": [
          28.54548107982736,
          74.29698681346679
        ]
      }
    },
    {
      "type": "Feature",
      "properties": {
        "norad_id": 49070,
        "name": "PLEIADES NEO 4",
        "group": "resource",
        "lat": -74.3884446610603,
        "lon": -151.66112970885956,
        "alt_km": 632.172750534718,
        "timestamp": "2025-12-11T15:53:39.200007+00:00",
        "meta_object_name": "PLEIADES NEO 4",
        "meta_object_id": "2021-073E",
        "meta_epoch": "2025-12-11T11:29:55.242240",
        "meta_mean_motion": 14.81675423,
        "meta_eccentricity": 0.0001258,
        "meta_inclination": 97.8949,
        "meta_ra_of_asc_node": 57.9344,
        "meta_arg_of_pericenter": 99.8795,
        "meta_mean_anomaly": 260.256,
        "meta_ephemeris_type": 0,
        "meta_classification_type": "U",
        "meta_norad_cat_id": 49070,
        "meta_element_set_no": 999,
        "meta_rev_at_epoch": 23357,
        "meta_bstar": 2.2947e-05,
        "meta_mean_motion_dot": 1.29e-06,
        "meta_mean_motion_ddot": 0,
        "tle_line1": "1 49070U 21073E   25345.47911160  .00000129  00000+0  22947-4 0  9990",
        "tle_line2": "2 49070  97.8949  57.9344 0001258  99.8795 260.2560 14.81675423233575"
      },
      "geometry": {
        "type": "Point",
        "coordinates": [
          -151.66112970885956,
          -74.3884446610603
        ]
      }
    },
    {
      "type": "Feature",
      "properties": {
        "norad_id": 49260,
        "name": "LANDSAT 9",
        "group": "resource",
        "lat": 8.186894222262197,
        "lon": 52.59890319682001,
        "alt_km": 704.2376693245442,
        "timestamp": "2025-12-11T15:53:39.200017+00:00",
        "meta_object_name": "LANDSAT 9",
        "meta_object_id": "2021-088A",
        "meta_epoch": "2025-12-10T21:43:40.110240",
        "meta_mean_motion": 14.57127299,
        "meta_eccentricity": 0.0001124,
        "meta_inclination": 98.2097,
        "meta_ra_of_asc_node": 53.0431,
        "meta_arg_of_pericenter": 95.249,
        "meta_mean_anomaly": 264.8836,
        "meta_ephemeris_type": 0,
        "meta_classification_type": "U",
        "meta_norad_cat_id": 49260,
        "meta_element_set_no": 999,
        "meta_rev_at_epoch": 22358,
        "meta_bstar": 0.00016389,
        "meta_mean_motion_dot": 6.93e-06,
        "meta_mean_motion_ddot": 0,
        "tle_line1": "1 49260U 21088A   25344.90532535  .00000693  00000+0  16389-3 0  9997",
        "tle_line2": "2 49260  98.2097  53.0431 0001124  95.2490 264.8836 14.57127299223585"
      },
      "geometry": {
        "type": "Point",
        "coordinates": [
          52.59890319682001,
          8.186894222262197
        ]
      }
    }
  ]
}